OBJECT C                
1 57582U 23117C   24160.20281287  .00010008  00000+0  52473-3 0  9996
2 57582  97.4870 232.3814 0009765 332.0969  27.9739 15.15928155 45824
